COMMENT,ORIGINATOR,NORAD_CAT_ID,OBJECT_NAME,OBJECT_TYPE,CLASSIFICATION_TYPE,INTLDES,EPOCH,EPOCH_MICROSECONDS,MEAN_MOTION,ECCENTRICITY,INCLINATION,RA_OF_ASC_NODE,ARG_OF_PERICENTER,MEAN_ANOMALY,EPHEMERIS_TYPE,ELEMENT_SET_NO,REV_AT_EPOCH,BSTAR,MEAN_MOTION_DOT,MEAN_MOTION_DDOT,FILE,TLE_LINE0,TLE_LINE1,TLE_LINE2,OBJECT_ID,OBJECT_NUMBER,SEMIMAJOR_AXIS,PERIOD,APOGEE,PERIGEE,DECAYED
GENERATED VIA SPACETRACK.ORG API,18 SPCS,44336,ARIANE 5 DEB (SYLDA),DEBRIS,U,19034D,2024-10-04 15:22:23,870784,4.32564989,0.5858514,5.871,88.6395,103.7704,324.7346,0,999,5483,0.015364,0.00376931,0,4514214,0 ARIANE 5 DEB (SYLDA),1 44336U 19034D   24278.64055406  .00376931  00000-0  15364-1 0  9999,2 44336   5.8710  88.6395 5858514 103.7704 324.7346  4.32564989 54839,2019-034D,44336,15911.127,332.898,18854.547,211.436,0
GENERATED VIA SPACETRACK.ORG API,18 SPCS,44336,ARIANE 5 DEB (SYLDA),DEBRIS,U,19034D,2024-10-04 15:22:23,870784,4.32564989,0.5858514,5.871,88.6395,103.7704,324.7346,0,999,5485,0.015364,0.00376931,0,4514403,0 ARIANE 5 DEB (SYLDA),1 44336U 19034D   24278.64055406  .00376931  00000-0  15364-1 0  9999,2 44336   5.8710  88.6395 5858514 103.7704 324.7346  4.32564989 54851,2019-034D,44336,15911.127,332.898,18854.547,211.436,0
GENERATED VIA SPACETRACK.ORG API,18 SPCS,44336,ARIANE 5 DEB (SYLDA),DEBRIS,U,19034D,2024-10-05 07:59:31,854912,4.33121984,0.5854988,5.8717,87.98,105.0762,323.7374,0,999,5486,0.015897,0.00391336,0,4514889,0 ARIANE 5 DEB (SYLDA),1 44336U 19034D   24279.33300758  .00391336  00000-0  15897-1 0  9996,2 44336   5.8717  87.9800 5854988 105.0762 323.7374  4.33121984 54867,2019-034D,44336,15897.483,332.47,18827.304,211.391,0
GENERATED VIA SPACETRACK.ORG API,18 SPCS,44336,ARIANE 5 DEB (SYLDA),DEBRIS,U,19034D,2024-10-05 07:59:32,5248,4.33118662,0.5855048,5.8717,87.9816,105.0727,323.7405,0,999,5488,0.015377,0.00379141,0,4515143,0 ARIANE 5 DEB (SYLDA),1 44336U 19034D   24279.33300932  .00379141  00000-0  15377-1 0  9993,2 44336   5.8717  87.9816 5855048 105.0727 323.7405  4.33118662 54889,2019-034D,44336,15897.564,332.472,18827.529,211.329,0
GENERATED VIA SPACETRACK.ORG API,18 SPCS,44336,ARIANE 5 DEB (SYLDA),DEBRIS,U,19034D,2024-10-05 07:59:32,5248,4.33118662,0.5855048,5.8717,87.9816,105.0727,323.7405,0,999,5486,0.015377,0.00379141,0,4515215,0 ARIANE 5 DEB (SYLDA),1 44336U 19034D   24279.33300932  .00379141  00000-0  15377-1 0  9993,2 44336   5.8717  87.9816 5855048 105.0727 323.7405  4.33118662 54867,2019-034D,44336,15897.564,332.472,18827.529,211.329,0
GENERATED VIA SPACETRACK.ORG API,18 SPCS,44336,ARIANE 5 DEB (SYLDA),DEBRIS,U,19034D,2024-10-06 06:07:05,282400,4.33811337,0.5850641,5.8724,87.1024,106.8132,322.3643,0,999,5490,0.014736,0.003645,0,4515927,0 ARIANE 5 DEB (SYLDA),1 44336U 19034D   24280.25492225  .00364500  00000-0  14736-1 0  9994,2 44336   5.8724  87.1024 5850641 106.8132 322.3643  4.33811337 54904,2019-034D,44336,15880.637,331.942,18793.692,211.311,0
GENERATED VIA SPACETRACK.ORG API,18 SPCS,44336,ARIANE 5 DEB (SYLDA),DEBRIS,U,19034D,2024-10-06 06:07:05,282400,4.33811337,0.5850641,5.8724,87.1024,106.8132,322.3643,0,999,5492,0.014736,0.003645,0,4516175,0 ARIANE 5 DEB (SYLDA),1 44336U 19034D   24280.25492225  .00364500  00000-0  14736-1 0  9994,2 44336   5.8724  87.1024 5850641 106.8132 322.3643  4.33811337 54926,2019-034D,44336,15880.637,331.942,18793.692,211.311,0
GENERATED VIA SPACETRACK.ORG API,18 SPCS,44336,ARIANE 5 DEB (SYLDA),DEBRIS,U,19034D,2024-10-07 09:43:31,230912,4.3468576,0.58452,5.8736,86.0044,108.9852,320.5647,0,999,5495,0.015329,0.00382567,0,4516941,0 ARIANE 5 DEB (SYLDA),1 44336U 19034D   24281.40522258  .00382567  00000-0  15329-1 0  9994,2 44336   5.8736  86.0044 5845200 108.9852 320.5647  4.34685760 54953,2019-034D,44336,15859.332,331.274,18751.294,211.1,0
GENERATED VIA SPACETRACK.ORG API,18 SPCS,44336,ARIANE 5 DEB (SYLDA),DEBRIS,U,19034D,2024-10-07 15:14:23,450496,4.3486711,0.5844084,5.8739,85.7879,109.4175,320.1949,0,999,5496,0.01595,0.00398996,0,4517321,0 ARIANE 5 DEB (SYLDA),1 44336U 19034D   24281.63499364  .00398996  00000-0  15950-1 0  9993,2 44336   5.8739  85.7879 5844084 109.4175 320.1949  4.34867110 54964,2019-034D,44336,15854.923,331.136,18742.538,211.038,0
GENERATED VIA SPACETRACK.ORG API,18 SPCS,44336,ARIANE 5 DEB (SYLDA),DEBRIS,U,19034D,2024-10-07 20:45:06,481440,4.35058572,0.5842894,5.8743,85.5653,109.8553,319.8161,0,999,5497,0.016466,0.00412715,0,4517678,0 ARIANE 5 DEB (SYLDA),1 44336U 19034D   24281.86465835  .00412715  00000-0  16466-1 0  9993,2 44336   5.8743  85.5653 5842894 109.8553 319.8161  4.35058572 54975,2019-034D,44336,15850.271,330.99,18733.281,210.991,0
GENERATED VIA SPACETRACK.ORG API,18 SPCS,44336,ARIANE 5 DEB (SYLDA),DEBRIS,U,19034D,2024-10-08 07:46:04,818432,4.35469849,0.584015,5.8748,85.1208,110.7327,319.0408,0,999,5499,0.019174,0.00478853,0,4518147,0 ARIANE 5 DEB (SYLDA),1 44336U 19034D   24282.32366688  .00478853  00000-0  19174-1 0  9995,2 44336   5.8748  85.1208 5840150 110.7327 319.0408  4.35469849 54996,2019-034D,44336,15840.289,330.677,18713.121,211.188,0
GENERATED VIA SPACETRACK.ORG API,18 SPCS,44336,ARIANE 5 DEB (SYLDA),DEBRIS,U,19034D,2024-10-08 07:46:04,818432,4.35469849,0.584015,5.8748,85.1208,110.7327,319.0408,0,999,5501,0.019174,0.00478853,0,4518461,0 ARIANE 5 DEB (SYLDA),1 44336U 19034D   24282.32366688  .00478853  00000-0  19174-1 0  9995,2 44336   5.8748  85.1208 5840150 110.7327 319.0408  4.35469849 55010,2019-034D,44336,15840.289,330.677,18713.121,211.188,0
GENERATED VIA SPACETRACK.ORG API,18 SPCS,44336,ARIANE 5 DEB (SYLDA),DEBRIS,U,19034D,2024-10-08 07:46:05,928672,4.35439178,0.5840383,5.8746,85.1239,110.7269,319.0485,0,999,5499,0.017588,0.00439882,0,4518585,0 ARIANE 5 DEB (SYLDA),1 44336U 19034D   24282.32367973  .00439882  00000-0  17588-1 0  9999,2 44336   5.8746  85.1239 5840383 110.7269 319.0485  4.35439178 54998,2019-034D,44336,15841.033,330.701,18714.668,211.128,0
GENERATED VIA SPACETRACK.ORG API,18 SPCS,44336,ARIANE 5 DEB (SYLDA),DEBRIS,U,19034D,2024-10-08 07:46:05,928672,4.35439178,0.5840383,5.8746,85.1239,110.7269,319.0485,0,999,5501,0.017588,0.00439882,0,4518921,0 ARIANE 5 DEB (SYLDA),1 44336U 19034D   24282.32367973  .00439882  00000-0  17588-1 0  9999,2 44336   5.8746  85.1239 5840383 110.7269 319.0485  4.35439178 55012,2019-034D,44336,15841.033,330.701,18714.668,211.128,0
GENERATED VIA SPACETRACK.ORG API,18 SPCS,44336,ARIANE 5 DEB (SYLDA),DEBRIS,U,19034D,2024-10-08 18:46:29,665056,4.35817395,0.583805,5.875,84.684,111.5966,318.2694,0,999,5501,0.015597,0.00391867,0,4518968,0 ARIANE 5 DEB (SYLDA),1 44336U 19034D   24282.78228779  .00391867  00000-0  15597-1 0  9997,2 44336   5.8750  84.6840 5838050 111.5966 318.2694  4.35817395 55014,2019-034D,44336,15831.867,330.414,18696.455,211.009,0
GENERATED VIA SPACETRACK.ORG API,18 SPCS,44336,ARIANE 5 DEB (SYLDA),DEBRIS,U,19034D,2024-10-09 11:16:01,601472,4.36362333,0.5834483,5.8757,84.0253,112.9016,317.0706,0,999,5504,0.016538,0.00414656,0,4519472,0 ARIANE 5 DEB (SYLDA),1 44336U 19034D   24283.46946298  .00414656  00000-0  16538-1 0  9994,2 44336   5.8757  84.0253 5834483 112.9016 317.0706  4.36362333 55042,2019-034D,44336,15818.684,330.001,18669.933,211.165,0
GENERATED VIA SPACETRACK.ORG API,18 SPCS,44336,ARIANE 5 DEB (SYLDA),DEBRIS,U,19034D,2024-10-09 11:16:01,601472,4.36362333,0.5834483,5.8757,84.0253,112.9016,317.0706,0,999,5506,0.016538,0.00414656,0,4519698,0 ARIANE 5 DEB (SYLDA),1 44336U 19034D   24283.46946298  .00414656  00000-0  16538-1 0  9994,2 44336   5.8757  84.0253 5834483 112.9016 317.0706  4.36362333 55064,2019-034D,44336,15818.684,330.001,18669.933,211.165,0
GENERATED VIA SPACETRACK.ORG API,18 SPCS,44336,ARIANE 5 DEB (SYLDA),DEBRIS,U,19034D,2024-10-09 22:15:03,470400,4.3667766,0.5832449,5.8764,83.5817,113.7756,316.2521,0,999,5506,0.014608,0.0036627,0,4520187,0 ARIANE 5 DEB (SYLDA),1 44336U 19034D   24283.92712350  .00366270  00000-0  14608-1 0  9999,2 44336   5.8764  83.5817 5832449 113.7756 316.2521  4.36677660 55060,2019-034D,44336,15811.067,329.763,18654.657,211.208,0
GENERATED VIA SPACETRACK.ORG API,18 SPCS,44336,ARIANE 5 DEB (SYLDA),DEBRIS,U,19034D,2024-10-10 09:13:34,762368,4.37003599,0.5830488,5.8768,83.1432,114.6428,315.4244,0,999,5508,0.013905,0.00350688,0,4520450,0 ARIANE 5 DEB (SYLDA),1 44336U 19034D   24284.38443012  .00350688  00000-0  13905-1 0  9991,2 44336   5.8768  83.1432 5830488 114.6428 315.4244  4.37003599 55080,2019-034D,44336,15803.205,329.517,18639.109,211.03,0
GENERATED VIA SPACETRACK.ORG API,18 SPCS,44336,ARIANE 5 DEB (SYLDA),DEBRIS,U,19034D,2024-10-10 20:11:37,315968,4.37309762,0.5828596,5.8775,82.7027,115.5152,314.5766,0,999,5510,0.017901,0.0045302,0,4521132,0 ARIANE 5 DEB (SYLDA),1 44336U 19034D   24284.84140412  .00453020  00000-0  17901-1 0  9994,2 44336   5.8775  82.7027 5828596 115.5152 314.5766  4.37309762 55107,2019-034D,44336,15795.828,329.286,18624.443,210.943,0
GENERATED VIA SPACETRACK.ORG API,18 SPCS,44336,ARIANE 5 DEB (SYLDA),DEBRIS,U,19034D,2024-10-11 12:37:35,319072,4.37912712,0.5824671,5.8786,82.0376,116.8272,313.2558,0,999,5513,0.01676,0.0042347,0,4521628,0 ARIANE 5 DEB (SYLDA),1 44336U 19034D   24285.52610323  .00423470  00000-0  16760-1 0  9991,2 44336   5.8786  82.0376 5824671 116.8272 313.2558  4.37912712 55139,2019-034D,44336,15781.325,328.833,18595.293,211.088,0
GENERATED VIA SPACETRACK.ORG API,18 SPCS,44336,ARIANE 5 DEB (SYLDA),DEBRIS,U,19034D,2024-10-11 12:37:35,204160,4.37918217,0.5824724,5.8784,82.0369,116.8289,313.2545,0,999,5513,0.016935,0.00429465,0,4522097,0 ARIANE 5 DEB (SYLDA),1 44336U 19034D   24285.52610190  .00429465  00000-0  16935-1 0  9997,2 44336   5.8784  82.0369 5824724 116.8289 313.2545  4.37918217 55138,2019-034D,44336,15781.193,328.829,18595.167,210.949,0
